{
  "norad_id": 67788,
  "name": "KUIPER-00262",
  "history": [
    {
      "epoch": "2026-03-28T19:06:14.891616Z",
      "apogee_km": 454.7182460229469,
      "perigee_km": 452.75107689674496,
      "latitude_deg": -5.510990642705044e-05,
      "longitude_deg": 13.873493703354857,
      "height_km": 453.95825651539997,
      "semi_major_axis_km": 6831.871661459845,
      "eccentricity": 0.00014397,
      "inclination_deg": 51.8811,
      "raan_deg": 126.6469,
      "arg_perigee_deg": 56.7925,
      "mean_anomaly_deg": 303.3199,
      "mean_motion_rev_day": 15.3742243
    }
  ]
}